{"type": "FeatureCollection", "features": [ {"type": "Feature", "properties": {"norad_id": 30242, "name": "FENGYUN 1C DEB", "group": "fengyun-1c-debris", "lat": -29.945664607077784, "lon": 28.115135541901193, "alt_km": 837.689002105978, "timestamp": "2025-12-14T22:38:41.032863+00:00", "meta": {"OBJECT_NAME": "FENGYUN 1C DEB", "OBJECT_ID": "1999-025XB", "EPOCH": "2025-12-14T02:46:23.486304", "MEAN_MOTION": 14.17641723, "ECCENTRICITY": 0.00110247, "INCLINATION": 98.6835, "RA_OF_ASC_NODE": 22.2551, "ARG_OF_PERICENTER": 51.1241, "MEAN_ANOMALY": 15.542, "EPHEMERIS_TYPE": 0, "CLASSIFICATION_TYPE": "U", "NORAD_CAT_ID": 30242, "ELEMENT_SET_NO": 999, "REV_AT_EPOCH": 97446, "BSTAR": 0.00073500575, "MEAN_MOTION_DOT": 1.453e-05, "MEAN_MOTION_DDOT": 0}, "tle": {"line1": "1 30242U 99025XB  25348.11554961  .00001453  00000+0  73501-3 0  9991", "line2": "2 30242  98.6835  22.2551 0011024  51.1241  15.5420 14.17641723974464"}}, "geometry": {"type": "Point", "coordinates": [28.115135541901193, -29.945664607077784]}}, {"type": "Feature", "properties": {"norad_id": 30243, "name": "FENGYUN 1C DEB", "group": "fengyun-1c-debris", "lat": 16.6089169664895, "lon": -2.3172452196494224, "alt_km": 850.5735916882832, "timestamp": "2025-12-14T22:38:41.032873+00:00", "meta": {"OBJECT_NAME": "FENGYUN 1C DEB", "OBJECT_ID": "1999-025XC", "EPOCH": "2025-12-14T07:20:58.151904", "MEAN_MOTION": 14.13024253, "ECCENTRICITY": 0.0013107, "INCLINATION": 98.6931, "RA_OF_ASC_NODE": 359.6796, "ARG_OF_PERICENTER": 114.9724, "MEAN_ANOMALY": 262.0253, "EPHEMERIS_TYPE": 0, "CLASSIFICATION_TYPE": "U", "NORAD_CAT_ID": 30243, "ELEMENT_SET_NO": 999, "REV_AT_EPOCH": 97301, "BSTAR": 0.00048575642, "MEAN_MOTION_DOT": 8.64e-06, "MEAN_MOTION_DDOT": 0}, "tle": {"line1": "1 30243U 99025XC  25348.30622861  .00000864  00000+0  48576-3 0  9997", "line2": "2 30243  98.6931 359.6796 0013107 114.9724 262.0253 14.13024253973010"}}, "geometry": {"type": "Point", "coordinates": [-2.3172452196494224, 16.6089169664895]}}, {"type": "Feature", "properties": {"norad_id": 30244, "name": "FENGYUN 1C DEB", "group": "fengyun-1c-debris", "lat": -47.10139604798844, "lon": 48.667823533465935, "alt_km": 847.9361030455302, "timestamp": "2025-12-14T22:38:41.032883+00:00", "meta": {"OBJECT_NAME": "FENGYUN 1C DEB", "OBJECT_ID": "1999-025XD", "EPOCH": "2025-12-14T06:50:59.548416", "MEAN_MOTION": 14.15018941, "ECCENTRICITY": 0.00094734, "INCLINATION": 99.1433, "RA_OF_ASC_NODE": 237.9747, "ARG_OF_PERICENTER": 310.9051, "MEAN_ANOMALY": 166.3705, "EPHEMERIS_TYPE": 0, "CLASSIFICATION_TYPE": "U", "NORAD_CAT_ID": 30244, "ELEMENT_SET_NO": 999, "REV_AT_EPOCH": 97368, "BSTAR": 0.00051478759, "MEAN_MOTION_DOT": 9.5e-06, "MEAN_MOTION_DDOT": 0}, "tle": {"line1": "1 30244U 99025XD  25348.28541144  .00000950  00000+0  51479-3 0  9991", "line2": "2 30244  99.1433 237.9747 0009473 310.9051 166.3705 14.15018941973680"}}, "geometry": {"type": "Point", "coordinates": [48.667823533465935, -47.10139604798844]}}, {"type": "Feature", "properties": {"norad_id": 30245, "name": "FENGYUN 1C DEB", "group": "fengyun-1c-debris", "lat": 78.5360269920907, "lon": -74.09601840254791, "alt_km": 1094.7317854869352, "timestamp": "2025-12-14T22:38:41.032894+00:00", "meta": {"OBJECT_NAME": "FENGYUN 1C DEB", "OBJECT_ID": "1999-025XE", "EPOCH": "2025-12-13T21:51:16.103520", "MEAN_MOTION": 13.79072478, "ECCENTRICITY": 0.01930731, "INCLINATION": 98.889, "RA_OF_ASC_NODE": 335.4395, "ARG_OF_PERICENTER": 247.8846, "MEAN_ANOMALY": 110.1711, "EPHEMERIS_TYPE": 0, "CLASSIFICATION_TYPE": "U", "NORAD_CAT_ID": 30245, "ELEMENT_SET_NO": 999, "REV_AT_EPOCH": 94710, "BSTAR": 0.0014388589, "MEAN_MOTION_DOT": 1.649e-05, "MEAN_MOTION_DDOT": 0}, "tle": {"line1": "1 30245U 99025XE  25347.91060305  .00001649  00000+0  14389-2 0  9990", "line2": "2 30245  98.8890 335.4395 0193073 247.8846 110.1711 13.79072478947103"}}, "geometry": {"type": "Point", "coordinates": [-74.09601840254791, 78.5360269920907]}}, {"type": "Feature", "properties": {"norad_id": 30246, "name": "FENGYUN 1C DEB", "group": "fengyun-1c-debris", "lat": -31.54169143129034, "lon": -53.07973172645548, "alt_km": 1247.1934665856534, "timestamp": "2025-12-14T22:38:41.032904+00:00", "meta": {"OBJECT_NAME": "FENGYUN 1C DEB", "OBJECT_ID": "1999-025XF", "EPOCH": "2025-12-14T07:37:58.940256", "MEAN_MOTION": 13.37019681, "ECCENTRICITY": 0.03706556, "INCLINATION": 98.6731, "RA_OF_ASC_NODE": 131.7618, "ARG_OF_PERICENTER": 95.7496, "MEAN_ANOMALY": 343.2218, "EPHEMERIS_TYPE": 0, "CLASSIFICATION_TYPE": "U", "NORAD_CAT_ID": 30246, "ELEMENT_SET_NO": 999, "REV_AT_EPOCH": 92161, "BSTAR": 0.00034916066, "MEAN_MOTION_DOT": 2.38e-06, "MEAN_MOTION_DDOT": 0}, "tle": {"line1": "1 30246U 99025XF  25348.31804329  .00000238  00000+0  34916-3 0  9990", "line2": "2 30246  98.6731 131.7618 0370655  95.7496 343.2218 13.37019681921615"}}, "geometry": {"type": "Point", "coordinates": [-53.07973172645548, -31.54169143129034]}}, {"type": "Feature", "properties": {"norad_id": 30247, "name": "FENGYUN 1C DEB", "group": "fengyun-1c-debris", "lat": 17.817788648240786, "lon": 78.77275495919069, "alt_km": 832.6833544778301, "timestamp": "2025-12-14T22:38:41.032914+00:00", "meta": {"OBJECT_NAME": "FENGYUN 1C DEB", "OBJECT_ID": "1999-025XG", "EPOCH": "2025-12-13T16:32:59.547840", "MEAN_MOTION": 14.59225342, "ECCENTRICITY": 0.01937621, "INCLINATION": 98.2759, "RA_OF_ASC_NODE": 254.8406, "ARG_OF_PERICENTER": 349.0719, "MEAN_ANOMALY": 69.1765, "EPHEMERIS_TYPE": 0, "CLASSIFICATION_TYPE": "U", "NORAD_CAT_ID": 30247, "ELEMENT_SET_NO": 999, "REV_AT_EPOCH": 97296, "BSTAR": 0.0035787514, "MEAN_MOTION_DOT": 0.00021957, "MEAN_MOTION_DDOT": 0}, "tle": {"line1": "1 30247U 99025XG  25347.68957810  .00021957  00000+0  35788-2 0  9992", "line2": "2 30247  98.2759 254.8406 0193762 349.0719  69.1765 14.59225342972962"}}, "geometry": {"type": "Point", "coordinates": [78.77275495919069, 17.817788648240786]}}, {"type": "Feature", "properties": {"norad_id": 30248, "name": "FENGYUN 1C DEB", "group": "fengyun-1c-debris", "lat": -16.858540521053538, "lon": -9.506179456923322, "alt_km": 687.8451255765049, "timestamp": "2025-12-14T22:38:41.032925+00:00", "meta": {"OBJECT_NAME": "FENGYUN 1C DEB", "OBJECT_ID": "1999-025XH", "EPOCH": "2025-12-13T11:11:21.557472", "MEAN_MOTION": 14.59227145, "ECCENTRICITY": 0.00291657, "INCLINATION": 99.0993, "RA_OF_ASC_NODE": 171.6596, "ARG_OF_PERICENTER": 148.1807, "MEAN_ANOMALY": 212.1159, "EPHEMERIS_TYPE": 0, "CLASSIFICATION_TYPE": "U", "NORAD_CAT_ID": 30248, "ELEMENT_SET_NO": 999, "REV_AT_EPOCH": 97439, "BSTAR": 0.0068532772, "MEAN_MOTION_DOT": 0.00032626, "MEAN_MOTION_DDOT": 0}, "tle": {"line1": "1 30248U 99025XH  25347.46622173  .00032626  00000+0  68533-2 0  9999", "line2": "2 30248  99.0993 171.6596 0029165 148.1807 212.1159 14.59227145974398"}}, "geometry": {"type": "Point", "coordinates": [-9.506179456923322, -16.858540521053538]}}, {"type": "Feature", "properties": {"norad_id": 30249, "name": "FENGYUN 1C DEB", "group": "fengyun-1c-debris", "lat": -69.9462756480514, "lon": -52.075113552867556, "alt_km": 722.6088079574838, "timestamp": "2025-12-14T22:38:41.032936+00:00", "meta": {"OBJECT_NAME": "FENGYUN 1C DEB", "OBJECT_ID": "1999-025XJ", "EPOCH": "2025-12-14T00:36:33.374592", "MEAN_MOTION": 14.57724849, "ECCENTRICITY": 0.00265326, "INCLINATION": 98.9585, "RA_OF_ASC_NODE": 152.5408, "ARG_OF_PERICENTER": 37.4634, "MEAN_ANOMALY": 79.1634, "EPHEMERIS_TYPE": 0, "CLASSIFICATION_TYPE": "U", "NORAD_CAT_ID": 30249, "ELEMENT_SET_NO": 999, "REV_AT_EPOCH": 97582, "BSTAR": 0.0035277721, "MEAN_MOTION_DOT": 0.00016171, "MEAN_MOTION_DDOT": 0}, "tle": {"line1": "1 30249U 99025XJ  25348.02538628  .00016171  00000+0  35278-2 0  9991", "line2": "2 30249  98.9585 152.5408 0026532  37.4634  79.1634 14.57724849975826"}}, "geometry": {"type": "Point", "coordinates": [-52.075113552867556, -69.9462756480514]}}, {"type": "Feature", "properties": {"norad_id": 30250, "name": "FENGYUN 1C DEB", "group": "fengyun-1c-debris", "lat": -65.3666362013575, "lon": 141.16496612211063, "alt_km": 852.0565695338155, "timestamp": "2025-12-14T22:38:41.032946+00:00", "meta": {"OBJECT_NAME": "FENGYUN 1C DEB", "OBJECT_ID": "1999-025XK", "EPOCH": "2025-12-13T23:31:19.649856", "MEAN_MOTION": 14.01627524, "ECCENTRICITY": 0.00684074, "INCLINATION": 98.7543, "RA_OF_ASC_NODE": 339.8763, "ARG_OF_PERICENTER": 219.8857, "MEAN_ANOMALY": 207.8576, "EPHEMERIS_TYPE": 0, "CLASSIFICATION_TYPE": "U", "NORAD_CAT_ID": 30250, "ELEMENT_SET_NO": 999, "REV_AT_EPOCH": 96509, "BSTAR": 0.00048805045, "MEAN_MOTION_DOT": 7.12e-06, "MEAN_MOTION_DDOT": 0}, "tle": {"line1": "1 30250U 99025XK  25347.98008854  .00000712  00000+0  48805-3 0  9995", "line2": "2 30250  98.7543 339.8763 0068407 219.8857 207.8576 14.01627524965098"}}, "geometry": {"type": "Point", "coordinates": [141.16496612211063, -65.3666362013575]}}, {"type": "Feature", "properties": {"norad_id": 30251, "name": "FENGYUN 1C DEB", "group": "fengyun-1c-debris", "lat": 9.069659297927073, "lon": 8.80566613915719, "alt_km": 828.7595071419573, "timestamp": "2025-12-14T22:38:41.032956+00:00", "meta": {"OBJECT_NAME": "FENGYUN 1C DEB", "OBJECT_ID": "1999-025XL", "EPOCH": "2025-12-14T07:34:38.653824", "MEAN_MOTION": 14.29308288, "ECCENTRICITY": 0.00517075, "INCLINATION": 99.049, "RA_OF_ASC_NODE": 186.6964, "ARG_OF_PERICENTER": 325.6936, "MEAN_ANOMALY": 216.7122, "EPHEMERIS_TYPE": 0, "CLASSIFICATION_TYPE": "U", "NORAD_CAT_ID": 30251, "ELEMENT_SET_NO": 999, "REV_AT_EPOCH": 98164, "BSTAR": 0.00060715143, "MEAN_MOTION_DOT": 1.52e-05, "MEAN_MOTION_DDOT": 0}, "tle": {"line1": "1 30251U 99025XL  25348.31572516  .00001520  00000+0  60715-3 0  9997", "line2": "2 30251  99.0490 186.6964 0051707 325.6936 216.7122 14.29308288981642"}}, "geometry": {"type": "Point", "coordinates": [8.80566613915719, 9.069659297927073]}}]}